[{"OBJECT_NAME":"LIZZIESAT-2 (LS-2)","OBJECT_ID":"2024-247G","EPOCH":"2026-03-09T11:47:37.199328","MEAN_MOTION":15.28222796,"ECCENTRICITY":0.00040927,"INCLINATION":44.9909,"RA_OF_ASC_NODE":117.0823,"ARG_OF_PERICENTER":327.5136,"MEAN_ANOMALY":32.5495,"EPHEMERIS_TYPE":0,"CLASSIFICATION_TYPE":"U","NORAD_CAT_ID":62383,"ELEMENT_SET_NO":999,"REV_AT_EPOCH":6771,"BSTAR":0.00034516624,"MEAN_MOTION_DOT":9.388e-5,"MEAN_MOTION_DDOT":0},{"OBJECT_NAME":"STARLINK-34108","OBJECT_ID":"2025-223U","EPOCH":"2026-03-09T22:08:28.714848","MEAN_MOTION":15.30221142,"ECCENTRICITY":9.661e-5,"INCLINATION":53.1595,"RA_OF_ASC_NODE":292.9263,"ARG_OF_PERICENTER":152.1665,"MEAN_ANOMALY":207.9388,"EPHEMERIS_TYPE":0,"CLASSIFICATION_TYPE":"U","NORAD_CAT_ID":65872,"ELEMENT_SET_NO":999,"REV_AT_EPOCH":2424,"BSTAR":0.00098223845,"MEAN_MOTION_DOT":0.00028864,"MEAN_MOTION_DDOT":0}]
